SAUDISAT 1C (SO-50)     
1 27607U 02058C   26195.19516802  .00000388  00000+0  63774-4 0  9991
2 27607  64.5517  45.4195 0074559 257.4690 101.8068 14.83097342268464
SAUDISAT 2              
1 28371U 04025F   26194.95504745  .00000106  00000+0  34669-4 0  9991
2 28371  98.5520 195.6301 0023998 212.0994 147.8743 14.56697879169647
SAUDISAT 3              
1 31118U 07012B   26194.84742691  .00000106  00000+0  25381-4 0  9996
2 31118  98.1467 145.2675 0015504 138.7145 221.5237 14.71439911 31663
PISAT                   
1 41784U 16059B   26194.98115819  .00000476  00000+0  88556-4 0  9991
2 41784  97.8190 194.2840 0030397 118.5361 241.8911 14.69028460523674
FLYING LAPTOP           
1 42831U 17042G   26195.18031697  .00001917  00000+0  15288-3 0  9994
2 42831  97.4795 349.6965 0019737  35.8212 324.4332 15.01308283490501
SALSAT                  
1 46495U 20068K   26194.96022582  .00004471  00000+0  15597-3 0  9995
2 46495  97.8856 199.6626 0009069 197.5036 162.5892 15.30161661319452
