OBJECT_NAME,OBJECT_ID,EPOCH,MEAN_MOTION,ECCENTRICITY,INCLINATION,RA_OF_ASC_NODE,ARG_OF_PERICENTER,MEAN_ANOMALY,EPHEMERIS_TYPE,CLASSIFICATION_TYPE,NORAD_CAT_ID,ELEMENT_SET_NO,REV_AT_EPOCH,BSTAR,MEAN_MOTION_DOT,MEAN_MOTION_DDOT
SAUDISAT 1C (SO-50),2002-058C,2026-07-14T04:41:02.516928,14.83097342,.0074559,64.5517,45.4195,257.4690,101.8068,0,U,27607,999,26846,.63774E-4,.388E-5,0
SAUDISAT 2,2004-025F,2026-07-13T22:55:16.099680,14.56697879,.0023998,98.5520,195.6301,212.0994,147.8743,0,U,28371,999,16964,.34669E-4,.106E-5,0
SAUDISAT 3,2007-012B,2026-07-13T20:20:17.685024,14.71439911,.0015504,98.1467,145.2675,138.7145,221.5237,0,U,31118,999,3166,.25381E-4,.106E-5,0
PISAT,2016-059B,2026-07-13T23:32:52.067616,14.69028460,.0030397,97.8190,194.2840,118.5361,241.8911,0,U,41784,999,52367,.88556E-4,.476E-5,0
FLYING LAPTOP,2017-042G,2026-07-14T04:19:39.386208,15.01308283,.0019737,97.4795,349.6965,35.8212,324.4332,0,U,42831,999,49050,.15288E-3,.1917E-4,0
SALSAT,2020-068K,2026-07-13T23:02:43.510848,15.30161661,.0009069,97.8856,199.6626,197.5036,162.5892,0,U,46495,999,31945,.15597E-3,.4471E-4,0
